ONEWEB-0258             
1 48976U 21060K   26197.13519343  .00000039  00000+0  67864-4 0  9993
2 48976  87.9080 223.0337 0002170  96.5605 263.5773 13.16594151243401
ONEWEB-0259             
1 48977U 21060L   26197.12886041  .00000051  00000+0  99864-4 0  9994
2 48977  87.9078 223.0332 0002284  96.2249 263.9142 13.16593841243433
ONEWEB-0260             
1 48978U 21060M   26197.12013196 -.00000026  00000+0 -10112-3 0  9990
2 48978  87.9073 223.0354 0001680  94.2825 265.8498 13.16595199243411
ONEWEB-0261             
1 48979U 21060N   26197.31806569 -.00000011  00000+0 -61954-4 0  9991
2 48979  87.9079 222.9967 0002090 102.3137 257.8228 13.16593898243493
ONEWEB-0262             
1 48980U 21060P   26197.07027887  .00000113  00000+0  26147-3 0  9999
2 48980  87.9080 223.0326 0002348  95.6104 264.5295 13.16594136243420
ONEWEB-0263             
1 48981U 21060Q   26197.10194234 -.00000034  00000+0 -12317-3 0  9993
2 48981  87.9080 223.0382 0002197 101.9001 258.2377 13.16593623243399
ONEWEB-0264             
1 48982U 21060R   26197.13913825  .00000039  00000+0  67466-4 0  9991
2 48982  87.9072 223.0328 0001937  98.0180 262.1171 13.16592190243402
ONEWEB-0266             
1 48984U 21060T   26197.16051214 -.00000024  00000+0 -95128-4 0  9993
2 48984  87.9082 223.0199 0002117  91.2419 268.8954 13.16595667243394
ONEWEB-0267             
1 48985U 21060U   26197.09561087 -.00000014  00000+0 -70320-4 0  9996
2 48985  87.9080 223.0296 0002044  98.8368 261.2995 13.16594118243398
ONEWEB-0268             
1 48986U 21060V   26197.06393951  .00000750  00000+0  19272-2 0  9999
2 48986  87.9078 223.0453 0001902  93.9446 266.1902 13.16598631243651
ONEWEB-0269             
1 48987U 21060W   26197.12094247  .00000022  00000+0  23323-4 0  9999
2 48987  87.9073 223.0346 0001966  89.4087 270.7269 13.16593986243430
ONEWEB-0270             
1 48988U 21060X   26197.06234014 -.00001216  00000+0 -32149-2 0  9993
2 48988  87.9084 223.0478 0002294 100.2105 259.9284 13.16598768243469
ONEWEB-0271             
1 48989U 21060Y   26197.12569486 -.00000042  00000+0 -14431-3 0  9996
2 48989  87.9077 223.0245 0002136 100.4054 259.7318 13.16593851243479
ONEWEB-0272             
1 48990U 21060Z   26197.14785295  .00000040  00000+0  72212-4 0  9996
2 48990  87.9073 223.0306 0001824  98.8586 261.2751 13.16595318243422
ONEWEB-0273             
1 48991U 21060AA  26197.32201594  .00000523  00000+0  13350-2 0  9994
2 48991  87.9077 222.9971 0002176  96.8601 263.2778 13.16591493243421
ONEWEB-0274             
1 48992U 21060AB  26197.11934493  .00000069  00000+0  14794-3 0  9992
2 48992  87.9068 223.0369 0001755  95.1259 265.0072 13.16595451243434
